STARLINK-34521          
1 64612U 25137U   25186.91668981 -.00929041  00000+0 -36914-2 0  9998
2 64612  53.1562  58.3896 0001006  60.4150  15.3209 15.88098103  2729
STARLINK-34500          
1 64613U 25137V   25186.91668981 -.00937823  00000+0 -37243-2 0  9992
2 64613  53.1561  58.3834 0000928  91.2834 347.4747 15.88129774  2820
STARLINK-34440          
1 64614U 25137W   25186.91668981 -.00945672  00000+0 -37539-2 0  9992
2 64614  53.1561  58.3775 0000791  69.5911  12.1383 15.88157503  2729
STARLINK-34469          
1 64615U 25137X   25186.91668981 -.00949529  00000+0 -37655-2 0  9997
2 64615  53.1561  58.3721 0000669  80.9950   3.1416 15.88187146  2728
STARLINK-34413          
1 64616U 25137Y   25186.91668981 -.00962587  00000+0 -38165-2 0  9994
2 64616  53.1561  58.3661 0000785  86.5202   0.6054 15.88220412  2828
STARLINK-34417          
1 64617U 25137Z   25186.91668981 -.00965875  00000+0 -38262-2 0  9996
2 64617  53.1562  58.3602 0000709  80.5949   9.4795 15.88246072  2822
STARLINK-34415          
1 64618U 25137AA  25186.91668981 -.00973778  00000+0 -38552-2 0  9990
2 64618  53.1561  58.3538 0000722  86.6190   6.4975 15.88276170  2728
STARLINK-34416          
1 64619U 25137AB  25186.91668981 -.00977755  00000+0 -38675-2 0  9996
2 64619  53.1562  58.3480 0000772  75.0797  20.9081 15.88302626  2721
STARLINK-34414          
1 64620U 25137AC  25186.91668981 -.00988096  00000+0 -39070-2 0  9998
2 64620  53.1562  58.3415 0000703  91.8684   7.2385 15.88334462  2724
HAWK-12C                
1 64621U 25138A   25186.94108355  .00002423  00000+0  13533-3 0  9993
2 64621  97.4354 191.3534 0013039 266.4706  93.5035 15.14389465  1390
HAWK-12B                
1 64622U 25138B   25186.93969906  .00002637  00000+0  14605-3 0  9998
2 64622  97.4355 191.3554 0012474 260.6616  99.3205 15.14629508  1390
HAWK-12A                
1 64623U 25138C   25186.93841252  .00002591  00000+0  14302-3 0  9995
2 64623  97.4355 191.3570 0013524 259.6900 100.2808 15.14755183  1390
KESTREL-0A              
1 64624U 25138D   25186.93547116  .00001618  00000+0  89286-4 0  9991
2 64624  97.4360 191.3613 0014536 251.3894 108.5760 15.15277413  1383
STARLINK-34464          
1 64664U 25139A   25186.91668981 -.01053722  00000+0 -42063-2 0  9994
2 64664  53.1556 200.6170 0000837  78.4855 129.1792 15.88298402  2396
STARLINK-34555          
1 64665U 25139B   25186.91668981 -.01053572  00000+0 -41966-2 0  9999
2 64665  53.1556 200.6139 0000774  81.5039 127.6531 15.88341635  2303
STARLINK-34390          
1 64666U 25139C   25186.91668981 -.01064324  00000+0 -42325-2 0  9997
2 64666  53.1556 200.6100 0000854  77.2950 133.7016 15.88398616  2458
STARLINK-34382          
1 64667U 25139D   25186.91668981 -.00987014  00000+0 -38987-2 0  9996
2 64667  53.1553 200.6059 0000405  70.4676 142.4261 15.88355095  2397
STARLINK-34395          
1 64668U 25139E   25186.91668981 -.01098390  00000+0 -43594-2 0  9998
2 64668  53.1555 200.6016 0000795  80.0926 134.8593 15.88518960  2395
STARLINK-34394          
1 64669U 25139F   25186.91668981 -.01102946  00000+0 -43690-2 0  9999
2 64669  53.1556 200.5985 0000876  75.1734 141.3626 15.88567266  2396
STARLINK-34287          
1 64670U 25139G   25186.91668981 -.01112128  00000+0 -43978-2 0  9993
2 64670  53.1556 200.5939 0000813  84.7348 133.9864 15.88623837  2393
STARLINK-34365          
1 64671U 25139H   25186.91668981 -.01116970  00000+0 -44088-2 0  9996
2 64671  53.1555 200.5907 0000870  80.5154 139.7254 15.88671208  2459
STARLINK-34442          
1 64672U 25139J   25186.91668981 -.01126017  00000+0 -44373-2 0  9997
2 64672  53.1556 200.5864 0000748  80.0992 142.1148 15.88726221  2391
STARLINK-34288          
1 64673U 25139K   25186.91668981 -.01140922  00000+0 -44907-2 0  9992
2 64673  53.1555 200.5824 0000804  84.3955 139.8130 15.88784754  2395
STARLINK-34539          
1 64674U 25139L   25186.91668981 -.01146713  00000+0 -45049-2 0  9995
2 64674  53.1554 200.5784 0000890  79.5630 146.5116 15.88835209  2303
STARLINK-34590          
1 64675U 25139M   25186.91668981 -.01150935  00000+0 -45130-2 0  9998
2 64675  53.1554 200.5749 0000778  78.8804 148.8897 15.88883619  2393
STARLINK-34573          
1 64676U 25139N   25186.91668981 -.01148769  00000+0 -44932-2 0  9990
2 64676  53.1555 200.5713 0000850  86.3992 143.0400 15.88926999  2395
STARLINK-34605          
1 64677U 25139P   25186.91668981 -.01158323  00000+0 -45233-2 0  9993
2 64677  53.1555 200.5667 0000874  79.9275 151.6494 15.88981274  2397
STARLINK-34525          
1 64678U 25139Q   25186.91668981 -.01164646  00000+0 -45396-2 0  9999
2 64678  53.1555 200.5629 0000827  88.0624 145.3571 15.89033323  2393
STARLINK-34489          
1 64679U 25139R   25186.91668981 -.01170141  00000+0 -45526-2 0  9992
2 64679  53.1555 200.5590 0000853  75.0088 160.2315 15.89082549  2396
STARLINK-34502          
1 64680U 25139S   25186.91668981 -.01184140  00000+0 -46015-2 0  9992
2 64680  53.1556 200.5553 0000786  83.8067 153.2875 15.89140901  2397
STARLINK-34553          
1 64681U 25139T   25186.91668981 -.01184316  00000+0 -45912-2 0  9993
2 64681  53.1556 200.5510 0000789  74.4370 164.5880 15.89188113  2395
STARLINK-34551          
1 64682U 25139U   25186.91668981 -.01195652  00000+0 -46287-2 0  9995
2 64682  53.1557 200.5475 0000826  78.1397 162.6475 15.89242444  2396
STARLINK-34550          
1 64683U 25139V   25186.91668981 -.01226028  00000+0 -46470-2 0  9992
2 64683  53.1556 200.5433 0000742  82.0631 160.6789 15.89293890  2399
STARLINK-34485          
1 64684U 25139W   25186.91668981 -.01237057  00000+0 -46807-2 0  9991
2 64684  53.1556 200.5387 0000792  80.2285 164.7175 15.89349024  2393
STARLINK-34253          
1 64685U 25139X   25186.91668981 -.01233416  00000+0 -46551-2 0  9993
2 64685  53.1555 200.5355 0000785  78.1628 168.2623 15.89391618  2390
STARLINK-34565          
1 64686U 25139Y   25186.91668981 -.01240633  00000+0 -46736-2 0  9998
2 64686  53.1553 200.5319 0000790  79.5918 168.5382 15.89442355  2392
STARLINK-34554          
1 64687U 25139Z   25186.91668981 -.01252707  00000+0 -47115-2 0  9996
2 64687  53.1556 200.5281 0000742  84.7030 165.4351 15.89498160  2391
STARLINK-34262          
1 64688U 25139AA  25186.91668981 -.01264565  00000+0 -47256-2 0  9998
2 64688  53.1554 200.5166 0000817  79.6266 175.9668 15.89646508  2454
STARLINK-34538          
1 64689U 25139AB  25186.91668981 -.01259948  00000+0 -47175-2 0  9998
2 64689  53.1556 200.5201 0000864  77.4599 176.4694 15.89598968  2398
STARLINK-34250          
1 64690U 25139AC  25186.91668981 -.01257255  00000+0 -47179-2 0  9993
2 64690  53.1554 200.5239 0000788  82.0291 170.1244 15.89550979  2397
2025-140A               
1 64691U 25140A   25186.53322891  .00000804  00000+0  13371-3 0  9992
2 64691  95.9837  33.0785 0011534 285.5641  74.4297 14.71645586  1067
ELECTRON KICK STAGE R/B 
1 64692U 25140B   25186.59932046  .00001035  00000+0  16936-3 0  9995
2 64692  95.9841  33.1307 0012540 277.9098  82.0691 14.72032422  1077
ELECTRON R/B            
1 64693U 25140C   25184.60816260  .01688620  13940-5  13045-2 0  9997
2 64693  95.9858  32.2057 0291021 205.3013 222.0369 15.65207463   825
GOSAT-GW (IBUKI GW)     
1 64694U 25141A   25186.96130003  .00000651  00000+0  12483-3 0  9998
2 64694  98.0588 125.5643 0003887 127.8168 232.3388 14.66979992  1062
H-2A R/B                
1 64695U 25141B   25186.79321595  .00000815  00000+0  87046-4 0  9998
2 64695  98.0468 125.5797 0093578 242.1866 116.9842 14.88682656  1055
STARLINK-34497          
1 64696U 25142A   25186.91668981 -.01043407  00000+0 -45054-2 0  9995
2 64696  69.9956 230.3907 0003755 274.6213 143.1312 15.87084584  2340
STARLINK-34584          
1 64697U 25142B   25186.91668981 -.01057837  00000+0 -45625-2 0  9992
2 64697  69.9954 230.3878 0003835 273.5968 146.1382 15.87140481  2181
STARLINK-34535          
1 64698U 25142C   25186.91668981 -.01070955  00000+0 -46135-2 0  9996
2 64698  69.9951 230.3852 0003704 274.5276 147.4408 15.87197986  2139
STARLINK-34600          
1 64699U 25142D   25186.91668981 -.01081837  00000+0 -46541-2 0  9999
2 64699  69.9952 230.3831 0003726 274.4919 149.2691 15.87250687  2182
STARLINK-34560          
1 64700U 25142E   25186.91668981 -.01099808  00000+0 -47269-2 0  9997
2 64700  69.9952 230.3805 0003789 273.8413 152.2950 15.87311714  2133
STARLINK-34576          
1 64701U 25142F   25186.91668981 -.01109468  00000+0 -47616-2 0  9998
2 64701  69.9949 230.3779 0003701 273.7288 154.4621 15.87364998  2134
STARLINK-34322          
1 64702U 25142G   25186.91668981 -.01123444  00000+0 -48161-2 0  9995
2 64702  69.9951 230.3752 0003681 274.6856 155.8878 15.87421699  2341
STARLINK-34470          
1 64703U 25142H   25186.91668981 -.01132992  00000+0 -48492-2 0  9991
2 64703  69.9951 230.3727 0003886 274.5110 158.1501 15.87473730  2132
STARLINK-34405          
1 64704U 25142J   25186.91668981 -.01141156  00000+0 -48775-2 0  9998
2 64704  69.9953 230.3704 0003702 274.5028 160.2023 15.87523724  2182
STARLINK-34406          
1 64705U 25142K   25186.91668981 -.01152898  00000+0 -49205-2 0  9993
2 64705  69.9949 230.3674 0003758 273.9344 163.0004 15.87580428  2295
STARLINK-34559          
1 64706U 25142L   25186.91668981 -.01160272  00000+0 -49441-2 0  9991
2 64706  69.9950 230.3650 0003784 274.0449 164.9238 15.87629722  2187
STARLINK-34316          
1 64707U 25142M   25186.91668981 -.01167758  00000+0 -49681-2 0  9994
2 64707  69.9948 230.3622 0003749 274.9933 166.2279 15.87680270  2345
STARLINK-34563          
1 64708U 25142N   25186.91668981 -.01177203  00000+0 -50019-2 0  9998
2 64708  69.9947 230.3600 0003793 274.2279 168.7937 15.87727986  2025
STARLINK-34499          
1 64709U 25142P   25186.91668981 -.01185719  00000+0 -50301-2 0  9994
2 64709  69.9949 230.3574 0003805 274.8305 170.5085 15.87780222  2025
